{
  "norad_id": "43632",
  "name": "AZERSPACE 2 (IS-38)",
  "line1": "1 43632U 18074A   26171.18709704  .00000132  00000+0  00000+0 0  9995",
  "line2": "2 43632   0.0176  12.5072 0001411  75.0400 293.3134  1.00271425 28472",
  "fetched_at": "2026-06-22T06:32:32.766906+00:00"
}